CCSDS_OMM_VERS = 2.0
CREATION_DATE  = 
ORIGINATOR     = 

OBJECT_NAME    = STARLINK-36489
OBJECT_ID      = 2026-002Z
CENTER_NAME    = EARTH
REF_FRAME      = TEME
TIME_SYSTEM    = UTC
MEAN_ELEMENT_THEORY = SGP/SGP4

EPOCH          = 2026-01-14T14:00:01.999872
MEAN_MOTION    = 15.90546792
ECCENTRICITY   = .00017082
INCLINATION    = 42.9981
RA_OF_ASC_NODE = 278.2874
ARG_OF_PERICENTER = 265.3762
MEAN_ANOMALY   = 284.7108

EPHEMERIS_TYPE = 0
CLASSIFICATION_TYPE = U
NORAD_CAT_ID   = 67328
ELEMENT_SET_NO = 999
REV_AT_EPOCH   = 287
BSTAR          = -.53206086E-2
MEAN_MOTION_DOT = -.1477506E-1
MEAN_MOTION_DDOT = 0

CCSDS_OMM_VERS = 2.0
CREATION_DATE  = 
ORIGINATOR     = 

OBJECT_NAME    = STARLINK-36496
OBJECT_ID      = 2026-002AA
CENTER_NAME    = EARTH
REF_FRAME      = TEME
TIME_SYSTEM    = UTC
MEAN_ELEMENT_THEORY = SGP/SGP4

EPOCH          = 2026-01-14T14:00:01.999872
MEAN_MOTION    = 15.90587321
ECCENTRICITY   = .00016779
INCLINATION    = 42.9982
RA_OF_ASC_NODE = 278.2743
ARG_OF_PERICENTER = 264.6282
MEAN_ANOMALY   = 290.5805

EPHEMERIS_TYPE = 0
CLASSIFICATION_TYPE = U
NORAD_CAT_ID   = 67329
ELEMENT_SET_NO = 999
REV_AT_EPOCH   = 270
BSTAR          = -.53325952E-2
MEAN_MOTION_DOT = -.1483048E-1
MEAN_MOTION_DDOT = 0

CCSDS_OMM_VERS = 2.0
CREATION_DATE  = 
ORIGINATOR     = 

OBJECT_NAME    = STARLINK-36483
OBJECT_ID      = 2026-002AB
CENTER_NAME    = EARTH
REF_FRAME      = TEME
TIME_SYSTEM    = UTC
MEAN_ELEMENT_THEORY = SGP/SGP4

EPOCH          = 2026-01-14T14:00:01.999872
MEAN_MOTION    = 15.90604701
ECCENTRICITY   = .00017774
INCLINATION    = 42.9982
RA_OF_ASC_NODE = 278.2581
ARG_OF_PERICENTER = 264.6967
MEAN_ANOMALY   = 296.8180

EPHEMERIS_TYPE = 0
CLASSIFICATION_TYPE = U
NORAD_CAT_ID   = 67330
ELEMENT_SET_NO = 999
REV_AT_EPOCH   = 287
BSTAR          = -.54232501E-2
MEAN_MOTION_DOT = -.1506008E-1
MEAN_MOTION_DDOT = 0

CCSDS_OMM_VERS = 2.0
CREATION_DATE  = 
ORIGINATOR     = 

OBJECT_NAME    = STARLINK-36494
OBJECT_ID      = 2026-002AC
CENTER_NAME    = EARTH
REF_FRAME      = TEME
TIME_SYSTEM    = UTC
MEAN_ELEMENT_THEORY = SGP/SGP4

EPOCH          = 2026-01-14T14:00:01.999872
MEAN_MOTION    = 15.90568238
ECCENTRICITY   = .00016978
INCLINATION    = 42.9982
RA_OF_ASC_NODE = 278.2804
ARG_OF_PERICENTER = 262.1061
MEAN_ANOMALY   = 290.6875

EPHEMERIS_TYPE = 0
CLASSIFICATION_TYPE = U
NORAD_CAT_ID   = 67331
ELEMENT_SET_NO = 999
REV_AT_EPOCH   = 287
BSTAR          = -.53459106E-2
MEAN_MOTION_DOT = -.1484987E-1
MEAN_MOTION_DDOT = 0

CCSDS_OMM_VERS = 2.0
CREATION_DATE  = 
ORIGINATOR     = 

OBJECT_NAME    = STARLINK-36492
OBJECT_ID      = 2026-002AD
CENTER_NAME    = EARTH
REF_FRAME      = TEME
TIME_SYSTEM    = UTC
MEAN_ELEMENT_THEORY = SGP/SGP4

EPOCH          = 2026-01-14T14:00:01.999872
MEAN_MOTION    = 15.90578679
ECCENTRICITY   = .00017391
INCLINATION    = 42.9983
RA_OF_ASC_NODE = 278.2632
ARG_OF_PERICENTER = 259.4207
MEAN_ANOMALY   = 300.0406

EPHEMERIS_TYPE = 0
CLASSIFICATION_TYPE = U
NORAD_CAT_ID   = 67332
ELEMENT_SET_NO = 999
REV_AT_EPOCH   = 287
BSTAR          = -.54141187E-2
MEAN_MOTION_DOT = -.1502037E-1
MEAN_MOTION_DDOT = 0

CCSDS_OMM_VERS = 2.0
CREATION_DATE  = 
ORIGINATOR     = 

OBJECT_NAME    = STARLINK-36427
OBJECT_ID      = 2026-002AE
CENTER_NAME    = EARTH
REF_FRAME      = TEME
TIME_SYSTEM    = UTC
MEAN_ELEMENT_THEORY = SGP/SGP4

EPOCH          = 2026-01-14T14:00:01.999872
MEAN_MOTION    = 15.97747447
ECCENTRICITY   = .00020466
INCLINATION    = 42.9973
RA_OF_ASC_NODE = 278.0036
ARG_OF_PERICENTER = 266.6343
MEAN_ANOMALY   = 34.9653

EPHEMERIS_TYPE = 0
CLASSIFICATION_TYPE = U
NORAD_CAT_ID   = 67333
ELEMENT_SET_NO = 999
REV_AT_EPOCH   = 277
BSTAR          = -.28684576E-2
MEAN_MOTION_DOT = -.134236E-1
MEAN_MOTION_DDOT = .54836159E-3

CCSDS_OMM_VERS = 2.0
CREATION_DATE  = 
ORIGINATOR     = 

OBJECT_NAME    = SHIJIAN-29B (SJ-29B)
OBJECT_ID      = 2025-315C
CENTER_NAME    = EARTH
REF_FRAME      = TEME
TIME_SYSTEM    = UTC
MEAN_ELEMENT_THEORY = SGP/SGP4

EPOCH          = 2026-01-14T18:17:21.507936
MEAN_MOTION    = 1.00271800
ECCENTRICITY   = .0000809
INCLINATION    = 3.0095
RA_OF_ASC_NODE = 99.1682
ARG_OF_PERICENTER = 330.3391
MEAN_ANOMALY   = 32.1463

EPHEMERIS_TYPE = 0
CLASSIFICATION_TYPE = U
NORAD_CAT_ID   = 67403
ELEMENT_SET_NO = 999
REV_AT_EPOCH   = 15
BSTAR          = 0
MEAN_MOTION_DOT = -.51E-6
MEAN_MOTION_DDOT = 0

CCSDS_OMM_VERS = 2.0
CREATION_DATE  = 
ORIGINATOR     = 

OBJECT_NAME    = YAOGAN-50 01
OBJECT_ID      = 2026-006A
CENTER_NAME    = EARTH
REF_FRAME      = TEME
TIME_SYSTEM    = UTC
MEAN_ELEMENT_THEORY = SGP/SGP4

EPOCH          = 2026-01-14T10:09:03.044160
MEAN_MOTION    = 14.20681477
ECCENTRICITY   = .0168494
INCLINATION    = 142.0000
RA_OF_ASC_NODE = 191.7347
ARG_OF_PERICENTER = 112.9450
MEAN_ANOMALY   = 248.9149

EPHEMERIS_TYPE = 0
CLASSIFICATION_TYPE = U
NORAD_CAT_ID   = 67433
ELEMENT_SET_NO = 999
REV_AT_EPOCH   = 12
BSTAR          = .24271344E-3
MEAN_MOTION_DOT = .825E-5
MEAN_MOTION_DDOT = 0

CCSDS_OMM_VERS = 2.0
CREATION_DATE  = 
ORIGINATOR     = 

OBJECT_NAME    = HULIANWANG DIGUI 18B
OBJECT_ID      = 2026-007B
CENTER_NAME    = EARTH
REF_FRAME      = TEME
TIME_SYSTEM    = UTC
MEAN_ELEMENT_THEORY = SGP/SGP4

EPOCH          = 2026-01-13T21:41:15.761760
MEAN_MOTION    = 13.92455148
ECCENTRICITY   = .00096458
INCLINATION    = 50.0156
RA_OF_ASC_NODE = 293.4468
ARG_OF_PERICENTER = 261.3532
MEAN_ANOMALY   = 98.6275

EPHEMERIS_TYPE = 0
CLASSIFICATION_TYPE = U
NORAD_CAT_ID   = 67436
ELEMENT_SET_NO = 999
REV_AT_EPOCH   = 4
BSTAR          = -.14697378E-2
MEAN_MOTION_DOT = -.2049E-4
MEAN_MOTION_DDOT = 0

CCSDS_OMM_VERS = 2.0
CREATION_DATE  = 
ORIGINATOR     = 

OBJECT_NAME    = HULIANWANG DIGUI 18J
OBJECT_ID      = 2026-007J
CENTER_NAME    = EARTH
REF_FRAME      = TEME
TIME_SYSTEM    = UTC
MEAN_ELEMENT_THEORY = SGP/SGP4

EPOCH          = 2026-01-14T01:07:44.968800
MEAN_MOTION    = 13.93030225
ECCENTRICITY   = .00062533
INCLINATION    = 50.0114
RA_OF_ASC_NODE = 292.8675
ARG_OF_PERICENTER = 279.7564
MEAN_ANOMALY   = 80.2630

EPHEMERIS_TYPE = 0
CLASSIFICATION_TYPE = U
NORAD_CAT_ID   = 67443
ELEMENT_SET_NO = 999
REV_AT_EPOCH   = 6
BSTAR          = .13931925E-4
MEAN_MOTION_DOT = -.129E-5
MEAN_MOTION_DDOT = 0

