STARLINK-36489          
1 67328U 26002Z   26014.58335648 -.01477506  00000+0 -53206-2 0  9990
2 67328  42.9981 278.2874 0001708 265.3762 284.7108 15.90546792  2871
STARLINK-36496          
1 67329U 26002AA  26014.58335648 -.01483048  00000+0 -53326-2 0  9992
2 67329  42.9982 278.2743 0001677 264.6282 290.5805 15.90587321  2706
STARLINK-36483          
1 67330U 26002AB  26014.58335648 -.01506008  00000+0 -54233-2 0  9994
2 67330  42.9982 278.2581 0001777 264.6967 296.8180 15.90604701  2874
STARLINK-36494          
1 67331U 26002AC  26014.58335648 -.01484987  00000+0 -53459-2 0  9995
2 67331  42.9982 278.2804 0001697 262.1061 290.6875 15.90568238  2879
STARLINK-36492          
1 67332U 26002AD  26014.58335648 -.01502037  00000+0 -54141-2 0  9992
2 67332  42.9983 278.2632 0001739 259.4207 300.0406 15.90578679  2874
STARLINK-36427          
1 67333U 26002AE  26014.58335648 -.01342360  54836-3 -28685-2 0  9998
2 67333  42.9973 278.0036 0002046 266.6343  34.9653 15.97747447  2777
SHIJIAN-29B (SJ-29B)    
1 67403U 25315C   26014.76205449 -.00000051  00000+0  00000+0 0  9991
2 67403   3.0095  99.1682 0000809 330.3391  32.1463  1.00271800   157
YAOGAN-50 01            
1 67433U 26006A   26014.42295190  .00000825  00000+0  24271-3 0  9995
2 67433 142.0000 191.7347 0168494 112.9450 248.9149 14.20681477   128
HULIANWANG DIGUI 18B    
1 67436U 26007B   26013.90365465 -.00002049  00000+0 -14697-2 0  9996
2 67436  50.0156 293.4468 0009645 261.3532  98.6275 13.92455148    40
HULIANWANG DIGUI 18J    
1 67443U 26007J   26014.04704825 -.00000129  00000+0  13932-4 0  9996
2 67443  50.0114 292.8675 0006253 279.7564  80.2630 13.93030225    65
